{
    "ID": 299,
    "name": "Venus",
    "radius": 6051.8,
    "rotation_factor": 1.4813688,
    "model_path": "res://content/scenes/model_scenes/venus.tscn",
    "central_body": "Sun",
    "semimajor_axis": 108209474.5374,
    "eccentricity": 0.00677672,
    "argument_periapsis": 54.92262463,
    "mean_anomaly": 50.37663232,
    "inclination": 3.39467605,
    "lon_ascending_node": 76.67984255,
    "orbital_period": 224.5469999,
    "info_points": [],
    "satellites": [] 
}